[{"OBJECT_NAME":"STARLINK-5873","OBJECT_ID":"2023-064AU","EPOCH":"2026-03-09T12:31:33.784320","MEAN_MOTION":14.98330535,"ECCENTRICITY":0.00031595,"INCLINATION":69.9993,"RA_OF_ASC_NODE":105.0315,"ARG_OF_PERICENTER":267.7061,"MEAN_ANOMALY":92.3736,"EPHEMERIS_TYPE":0,"CLASSIFICATION_TYPE":"U","NORAD_CAT_ID":56490,"ELEMENT_SET_NO":999,"REV_AT_EPOCH":15620,"BSTAR":-2.2748139e-5,"MEAN_MOTION_DOT":-3.64e-6,"MEAN_MOTION_DDOT":0},{"OBJECT_NAME":"SITRO-AIS 21","OBJECT_ID":"2024-199E","EPOCH":"2026-03-09T22:38:47.668992","MEAN_MOTION":14.94747634,"ECCENTRICITY":0.00136926,"INCLINATION":97.333,"RA_OF_ASC_NODE":273.2344,"ARG_OF_PERICENTER":42.1108,"MEAN_ANOMALY":318.1163,"EPHEMERIS_TYPE":0,"CLASSIFICATION_TYPE":"U","NORAD_CAT_ID":61739,"ELEMENT_SET_NO":999,"REV_AT_EPOCH":11692,"BSTAR":0.00018121744,"MEAN_MOTION_DOT":1.92e-5,"MEAN_MOTION_DDOT":0}]
